[{"OBJECT_NAME":"M2 PATHFINDER","OBJECT_ID":"2020-037E","EPOCH":"2026-03-09T11:30:45.742176","MEAN_MOTION":15.04175941,"ECCENTRICITY":0.00124059,"INCLINATION":97.8158,"RA_OF_ASC_NODE":258.5983,"ARG_OF_PERICENTER":127.8041,"MEAN_ANOMALY":232.431,"EPHEMERIS_TYPE":0,"CLASSIFICATION_TYPE":"U","NORAD_CAT_ID":45727,"ELEMENT_SET_NO":999,"REV_AT_EPOCH":31050,"BSTAR":0.00032591881,"MEAN_MOTION_DOT":4.468e-5,"MEAN_MOTION_DDOT":0},{"OBJECT_NAME":"STARLINK-6322","OBJECT_ID":"2023-099K","EPOCH":"2026-03-09T13:06:50.541120","MEAN_MOTION":15.0253313,"ECCENTRICITY":0.0001188,"INCLINATION":43.0018,"RA_OF_ASC_NODE":249.8685,"ARG_OF_PERICENTER":266.0783,"MEAN_ANOMALY":93.9924,"EPHEMERIS_TYPE":0,"CLASSIFICATION_TYPE":"U","NORAD_CAT_ID":57337,"ELEMENT_SET_NO":999,"REV_AT_EPOCH":14609,"BSTAR":-1.5412e-5,"MEAN_MOTION_DOT":-4.12e-6,"MEAN_MOTION_DDOT":0}]
