M2 PATHFINDER           
1 45727U 20037E   26068.47969609  .00004468  00000+0  32592-3 0  9994
2 45727  97.8158 258.5983 0012405 127.8041 232.4310 15.04175941310501
STARLINK-6322           
1 57337U 23099K   26068.54641830 -.00000412  00000+0 -15412-4 0  9996
2 57337  43.0018 249.8685 0001188 266.0783  93.9924 15.02533130146094
